Date,Air Temperature(oC),Dew Point(oC),Soil Temperature(oC),Precipitation(mm),EvapoTransipiration(mm),Wind Speed(kmph),Wind Gust(kmph),Humidity(%),Solar Radiation(W/m_),Pressure(mBar),Leaf Wetness(fraction),UV Index(class),Visibility(km),Hour of Sun(mins),
2017-04-05 12:00:00 am,-4.2,-6.2,-4.8,0,0,29.4,45.4,86,117,1020.1,0,0,15700,0,
2017-04-05 1:00:00 am,-4.6,-6.6,-4.8,0,0,28.1,44,86.1,73,1020.4,0,0,17666,0,
2017-04-05 2:00:00 am,-5.1,-7,-4.8,0,0,27.2,42.7,86.2,30,1020.7,0,0,19633,0,
2017-04-05 3:00:00 am,-5.6,-7.5,-4.8,0,0,26.1,41.4,86,0,1021,0,0,21600,0,
2017-04-05 4:00:00 am,-6.2,-8.2,-4.8,0,0,24.8,37.9,85.4,0,1021.3,0,0,22433,0,
2017-04-05 5:00:00 am,-6.9,-9.1,-4.9,0,0,23.2,34.4,84.5,0,1021.7,0,0,23266,0,
2017-04-05 6:00:00 am,-7.8,-10,-5,0,0,21.4,31,84,0,1022,0,0,24100,0,
2017-04-05 7:00:00 am,-8.7,-10.9,-5.1,0,0,19.5,30,83.9,6,1022.3,0,0,24100,0,
2017-04-05 8:00:00 am,-9.4,-11.6,-5.1,0,0,18,29,83.9,6,1022.6,0,0,24100,0,
2017-04-05 9:00:00 am,-9.7,-12,-5.2,0,0,17.3,28.1,83,0,1022.9,0,0,24100,0,
2017-04-05 10:00:00 am,-9.4,-12.1,-5.3,0,0,17.8,25.3,80.8,0,1023.2,0,0,24100,0,
2017-04-05 11:00:00 am,-8.6,-11.8,-5.3,0,0,18.8,22.6,77.4,7,1023.4,0,1,24100,56,
2017-04-05 12:00:00 pm,-6.4,-11.4,-5.5,0,0,19.3,24.8,67,83,1024.2,0,1,24100,59,
2017-04-05 1:00:00 pm,-5.2,-11.1,-5.4,0,0,18.4,21.1,62.9,247,1024.4,0,2,24100,59,
2017-04-05 2:00:00 pm,-4,-10.7,-5.4,0,0,16.8,17.4,59.6,449,1024.5,0,3,24100,59,
2017-04-05 3:00:00 pm,-2.9,-10.2,-5.3,0,0,15.3,15.3,57,620,1024.7,0,4,24100,60,
2017-04-05 4:00:00 pm,-2,-9.8,-5.2,0,0,14.4,14.4,55,708,1024.5,0,4,24100,60,
2017-04-05 5:00:00 pm,-1.3,-9.4,-5.2,0,0,13.8,13.8,53.9,721,1024.3,0,4,24100,60,
2017-04-05 6:00:00 pm,-0.9,-9,-5.1,0,0,13.1,13.1,54,679,1024.1,0,3,24100,60,
2017-04-05 7:00:00 pm,-0.9,-8.6,-5.1,0,0,12.1,12.1,55.7,605,1023.9,0,2,24100,60,
2017-04-05 8:00:00 pm,-1.4,-8.3,-5,0,0,11.1,11.1,59.3,515,1023.8,0,1,24100,60,
2017-04-05 9:00:00 pm,-2.3,-7.9,-5,0,0,10.1,10.1,65,430,1023.6,0,0,24100,60,
2017-04-05 10:00:00 pm,-3.6,-7.8,-5.1,0,0,8.7,8.7,72.6,361,1024.2,0,0,24100,19,
2017-04-05 11:00:00 pm,-5.1,-7.9,-5.2,0,0,6.8,6.8,80.6,301,1024.8,1,0,24100,0,
2017-04-06 12:00:00 am,-6.3,-8.1,-5.2,0,0,4.4,5.4,87,233,1025.4,1,0,24100,0,
2017-04-06 1:00:00 am,-7,-8.3,-5.3,0,0,1.8,4.9,90.6,147,1025.3,1,0,19733,0,
2017-04-06 2:00:00 am,-7.4,-8.5,-5.4,0,0,1.9,4.4,91.8,61,1025.1,1,0,15366,0,
2017-04-06 3:00:00 am,-7.7,-8.8,-5.5,0,0,3.8,4,92,0,1025,0,0,11000,0,
2017-04-06 4:00:00 am,-8.1,-9.2,-5.6,0,0,4.9,5,92,0,1024.7,0,0,10966,0,
2017-04-06 5:00:00 am,-8.5,-9.6,-5.6,0,0,5,6.1,91.9,0,1024.4,0,0,10933,0,
2017-04-06 6:00:00 am,-8.8,-9.8,-5.7,0,0,4.7,7.2,92,0,1024.1,0,0,10900,0,
2017-04-06 7:00:00 am,-8.7,-9.7,-5.7,0,0,4.8,7.4,92.2,10,1023.8,0,0,10900,0,
2017-04-06 8:00:00 am,-8.4,-9.4,-5.7,0,0,6,7.7,92.5,11,1023.5,0,0,10900,0,
2017-04-06 9:00:00 am,-7.7,-8.6,-5.8,0,0,7.6,7.9,93,0,1023.2,0,0,10900,0,
2017-04-06 10:00:00 am,-6.7,-7.6,-5.7,0,0,9.1,9.5,93.4,0,1023.1,0,0,10900,0,
2017-04-06 11:00:00 am,-5.4,-6.3,-5.7,0,0,11,11,92.9,0,1023,0,0,10900,0,
2017-04-06 12:00:00 pm,-2.5,-6.1,-5.9,0,0,13.6,16.6,76,56,1022.3,0,1,24100,0,
2017-04-06 1:00:00 pm,-0.9,-5.4,-5.9,0,0,14.2,16.8,71.4,202,1021.8,0,2,24100,3,
2017-04-06 2:00:00 pm,0.5,-4.9,-5.8,0,0,14,17,66.9,386,1021.3,0,3,24100,10,
2017-04-06 3:00:00 pm,1.5,-4.3,-5.7,0,0,13.5,17.3,65,546,1020.8,0,3,24100,18,
2017-04-06 4:00:00 pm,2,-3.4,-5.6,0,0,13.3,17.9,67.2,633,1020.3,0,4,24100,13,
2017-04-06 5:00:00 pm,2.2,-2.4,-5.6,0,0,13.5,18.5,71.5,648,1019.8,0,3,24100,9,
2017-04-06 6:00:00 pm,2.2,-1.8,-5.5,0,0,13.7,19.1,75,608,1019.3,0,2,24100,4,
2017-04-06 7:00:00 pm,2.2,-1.6,-5.4,0,0,13.6,20.4,75.6,526,1019.1,0,2,24100,20,
2017-04-06 8:00:00 pm,2.2,-2,-5.3,0,0,13.7,21.7,74,428,1018.9,0,1,24100,36,
2017-04-06 9:00:00 pm,1.6,-2.9,-5.3,0,0,14.1,23,72,340,1018.7,0,0,24100,52,
2017-04-06 10:00:00 pm,0.4,-4.2,-5.3,0,0,15.2,24,70.8,279,1019,0,0,24100,19,
2017-04-06 11:00:00 pm,-0.9,-5.5,-5.3,0,0,16.3,25,71.1,235,1019.2,0,0,24100,0,
2017-04-07 12:00:00 am,-1.9,-6.1,-5.3,0,0,16.8,25.9,73,186,1019.5,0,0,24100,0,
2017-04-07 1:00:00 am,-2.3,-5.8,-5.3,0,0,16.4,24.1,76.6,119,1019.4,0,0,24100,0,
2017-04-07 2:00:00 am,-2.1,-5,-5.3,0,0,15.4,22.3,80.8,50,1019.3,0,0,24100,0,
2017-04-07 3:00:00 am,-2,-4.4,-5.3,0,0,14.3,20.5,84,0,1019.2,0,0,24100,0,
2017-04-07 4:00:00 am,-2.3,-4.5,-5.4,0,0,13.7,19.8,85.2,0,1019.2,0,0,24100,0,
2017-04-07 5:00:00 am,-2.8,-5,-5.4,0,0,13.2,19.1,85.1,0,1019.2,0,0,24100,0,
2017-04-07 6:00:00 am,-3.2,-5.4,-5.4,0,0,12.6,18.4,85,0,1019.2,1,0,24100,0,
2017-04-07 7:00:00 am,-3.4,-5.5,-5.4,0,0,11.6,17.4,85.6,4,1019.1,1,0,24100,0,
2017-04-07 8:00:00 am,-3.2,-5.1,-5.5,0,0,10.5,16.4,86.6,2,1019.1,1,0,24100,0,
2017-04-07 9:00:00 am,-2.7,-4.6,-5.5,0,0,9.8,15.5,87,0,1019,1,0,24100,0,
2017-04-07 10:00:00 am,-1.9,-3.9,-5.5,0,0,9.8,14.2,86.3,2,1019,0,0,24100,25,
2017-04-07 11:00:00 am,-1,-3.2,-5.5,0,0,10.2,12.8,85,21,1019.1,0,1,24100,38,
2017-04-07 12:00:00 pm,-2,-2.7,-5.6,0,0,10.4,10.4,95,44,1019.6,0,1,7700,0,
2017-04-07 1:00:00 pm,-1,-2.2,-5.5,0,0,10.5,12.5,91.7,155,1019.3,0,2,13166,0,
2017-04-07 2:00:00 pm,-0.1,-2,-5.4,0,0,11.8,14.9,87.4,293,1019.1,0,3,18633,0,
2017-04-07 3:00:00 pm,0.5,-1.8,-5.4,0,0,13.8,17.3,84,409,1018.8,0,4,24100,0,
2017-04-07 4:00:00 pm,0.9,-1.7,-5.3,0,0,15.8,21.1,83.1,465,1018.5,0,4,24100,0,
2017-04-07 5:00:00 pm,0.9,-1.4,-5.2,0,0,17.8,25,84.3,465,1018.3,0,3,24100,0,
2017-04-07 6:00:00 pm,0.7,-1.2,-5.2,0,0,20.1,28.8,87,419,1018,0,2,24100,0,
2017-04-07 7:00:00 pm,0.3,-1.1,-5.1,0,0,22.7,35.2,90.4,341,1016.9,0,1,16333,0,
2017-04-07 8:00:00 pm,-0.2,-1.1,-5,0,0,25.4,41.5,93.4,253,1015.8,0,1,8566,0,
2017-04-07 9:00:00 pm,-0.6,-1.3,-5,0.7,0,28,47.9,95,180,1014.7,1,0,800,0,
2017-04-07 10:00:00 pm,-1,-1.7,-4.9,0.6,0,30.3,50.9,94.5,136,1013.6,1,0,1000,0,
2017-04-07 11:00:00 pm,-1.1,-2.1,-4.9,0.9,0,32.5,53.9,93,112,1012.5,1,0,1199,0,
2017-04-08 12:00:00 am,-1,-2.1,-4.8,1.1,0,34.2,56.9,92,90,1011.4,1,0,1400,0,
2017-04-08 1:00:00 am,-0.6,-1.7,-4.8,1.2,0,35.4,57.8,92.6,60,1010,1,0,1300,0,
2017-04-08 2:00:00 am,-0.2,-1,-4.7,1.1,0,36.5,58.8,94.3,25,1008.7,1,0,1199,0,
2017-04-08 3:00:00 am,0.2,-0.3,-4.7,1.1,0,37.1,59.8,96,0,1007.3,1,0,1100,0,
2017-04-08 4:00:00 am,0.4,-0.1,-4.6,1.3,0,35.7,57.5,96.9,0,1005.7,1,0,1033,0,
2017-04-08 5:00:00 am,0.3,-0.1,-4.5,1.5,0,33.4,55.2,97.1,0,1004.2,1,0,966,0,
2017-04-08 6:00:00 am,0.3,-0.1,-4.5,1.6,0,32.1,52.9,97,0,1002.6,1,0,900,0,
2017-04-08 7:00:00 am,0.3,-0.1,-4.4,1.3,0,33.5,57.8,96.9,5,1001.4,1,0,1366,0,
2017-04-08 8:00:00 am,0.5,0,-4.4,1,0,36.5,62.8,96.9,5,1000.2,1,0,1833,0,
2017-04-08 9:00:00 am,0.6,0.2,-4.3,0.9,0,39.5,67.7,97,0,999,1,0,2300,0,
2017-04-08 10:00:00 am,0.8,0.4,-4.3,1.2,0,40.9,66.1,97,0,998.1,1,0,5199,0,
2017-04-08 11:00:00 am,1.1,0.6,-4.2,1.6,0,40.8,64.6,96.8,0,997.2,1,0,8100,0,
2017-04-08 12:00:00 pm,1.1,0.7,-4.2,0,0,32,48.6,97,20,998.1,1,1,11000,0,
2017-04-08 1:00:00 pm,2.1,1.3,-4.2,0,0,29.5,43,94.7,119,998,0,1,12866,9,
2017-04-08 2:00:00 pm,3.3,2.1,-4.1,0,0,27.1,37.3,91.7,252,997.8,0,2,14733,23,
2017-04-08 3:00:00 pm,4.5,2.9,-4.1,0,0,25.6,31.7,89,380,997.7,0,2,16600,37,
2017-04-08 4:00:00 pm,5.3,3.4,-4,0,0,25.7,34.6,87.5,472,997.8,0,3,16600,39,
2017-04-08 5:00:00 pm,5.8,3.8,-4,0,0,26.7,37.4,87.2,522,997.8,0,2,16600,40,
2017-04-08 6:00:00 pm,5.8,3.9,-3.9,0,0,27.3,40.3,88,527,997.9,0,2,16600,42,
2017-04-08 7:00:00 pm,5.4,3.8,-3.9,0,0,26.5,37.4,89.7,489,998.3,0,1,16600,40,
2017-04-08 8:00:00 pm,4.7,3.4,-3.8,0,0,24.6,34.6,91.7,427,998.7,1,1,16600,39,
2017-04-08 9:00:00 pm,3.8,2.8,-3.8,0,0,22,31.7,93,360,999.1,1,0,16600,37,
2017-04-08 10:00:00 pm,2.9,1.9,-3.7,0,0,19.4,28.7,93.2,303,999.5,1,0,16600,14,
2017-04-08 11:00:00 pm,2,1,-3.7,0,0,17.1,25.7,92.9,251,1000,1,0,16600,0,
2017-04-09 12:00:00 am,1.3,0.3,-3.7,0,0,15.5,22.7,93,193,1000.4,1,0,16600,0,
2017-04-09 1:00:00 am,0.9,0,-3.6,0,0,14.8,21.4,94.1,121,1000.6,1,0,14700,0,
2017-04-09 2:00:00 am,0.6,0,-3.6,0,0,14.7,20,95.7,50,1000.9,1,0,12799,0,
2017-04-09 3:00:00 am,0.4,0,-3.6,0,0,14.8,18.7,97,0,1001.1,1,0,10900,0,
2017-04-09 4:00:00 am,0.4,0.1,-3.5,0,0,14.6,17.3,97.4,0,1001.3,1,0,10900,0,
2017-04-09 5:00:00 am,0.5,0.1,-3.5,0,0,13.6,15.8,97.2,0,1001.5,1,0,10900,0,
2017-04-09 6:00:00 am,0.5,0.1,-3.5,0,0,11.5,14.4,97,0,1001.7,1,0,10900,0,
2017-04-09 7:00:00 am,0.4,0,-3.4,0,0,9,15.1,97.1,4,1002.1,1,0,7300,0,
2017-04-09 8:00:00 am,0.2,-0.1,-3.4,0,0,7.7,15.8,97.5,2,1002.5,1,0,3699,0,
2017-04-09 9:00:00 am,0.2,-0.1,-3.4,0,0,7.2,16.6,98,0,1002.9,1,0,100,0,
2017-04-09 10:00:00 am,0.3,0.1,-3.4,0,0,5,13,98.4,0,1003.7,1,0,466,0,
2017-04-09 11:00:00 am,0.5,0.2,-3.3,0.3,0,1.7,9.4,98.2,6,1004.4,1,1,833,0,
2017-04-09 12:00:00 pm,0.9,0.3,-3.5,0,0,8.9,14.4,96,51,1005,0,1,10900,0,
2017-04-09 1:00:00 pm,0.9,-0.3,-3.5,0,0,13.6,17.5,91.7,97,1005.9,0,1,15300,0,
2017-04-09 2:00:00 pm,0.7,-1.4,-3.4,0,0,17.5,20.6,86.2,151,1006.8,0,2,19699,0,
2017-04-09 3:00:00 pm,0.4,-2.3,-3.4,0,0,19.5,23.8,82,203,1007.7,0,2,24100,0,
2017-04-09 4:00:00 pm,0.3,-2.6,-3.4,0,0,19.3,22,80.9,239,1008.3,0,2,24100,0,
2017-04-09 5:00:00 pm,0.3,-2.4,-3.3,0,0,17.4,20.2,82.1,253,1008.8,0,2,24100,0,
2017-04-09 6:00:00 pm,0.4,-2,-3.3,0,0,14.9,18.4,84,235,1009.4,0,1,24100,0,
2017-04-09 7:00:00 pm,0.3,-1.8,-3.3,0,0,12.6,15.8,85.5,182,1009.9,0,2,24100,0,
2017-04-09 8:00:00 pm,0.2,-1.8,-3.2,0,0,10.4,13.3,86.5,114,1010.4,0,1,24100,0,
2017-04-09 9:00:00 pm,0.1,-1.8,-3.2,0,0,8.2,10.8,87,60,1010.9,0,0,24100,0,
2017-04-09 10:00:00 pm,0.1,-1.8,-3.2,0,0,5.6,8.4,87.1,36,1011.5,0,0,24100,0,
2017-04-09 11:00:00 pm,0,-1.8,-3.2,0,0,3.1,6,87.3,33,1012.2,0,0,24100,0,
2017-04-10 12:00:00 am,-0.1,-1.9,-3.2,0,0,2.8,3.6,88,35,1012.8,0,0,24100,0,
2017-04-10 1:00:00 am,-0.5,-2.1,-3.2,0,0,5.2,6.2,89.4,26,1013.4,1,0,24100,0,
2017-04-10 2:00:00 am,-1,-2.3,-3.2,0,0,7.9,8.9,91.3,12,1013.9,1,0,24100,0,
2017-04-10 3:00:00 am,-1.4,-2.4,-3.2,0,0,10.4,11.5,93,0,1014.5,1,0,24100,0,
2017-04-10 4:00:00 am,-1.5,-2.3,-3.2,0,0,12.7,13.4,94.2,0,1014.7,1,0,24100,0,
2017-04-10 5:00:00 am,-1.5,-2.2,-3.2,0,0,14.5,15.4,95.1,0,1014.9,1,0,24100,0,
2017-04-10 6:00:00 am,-1.6,-2.2,-3.2,0,0,15.7,17.3,96,0,1015.1,1,0,24100,0,
2017-04-10 7:00:00 am,-1.8,-2.3,-3.2,0,0,16.2,18.2,97,4,1015.1,1,0,16233,0,
2017-04-10 8:00:00 am,-2.1,-2.4,-3.2,0,0,16.2,19.2,97.6,5,1015.1,1,0,8366,0,
2017-04-10 9:00:00 am,-2,-2.4,-3.2,0,0,16.4,20.2,97,0,1015.1,0,0,500,0,
2017-04-10 10:00:00 am,-1.4,-2.1,-3.2,0,0,17.1,23.2,94.7,0,1015.4,0,0,8366,0,
2017-04-10 11:00:00 am,-0.4,-1.6,-3.2,0,0,18.3,26.2,91.3,3,1015.6,0,1,16233,26,
2017-04-10 12:00:00 pm,0.5,-0.8,-3.5,0.2,0,19.1,21.6,91,62,1016.5,1,1,24100,24,
2017-04-10 1:00:00 pm,1.6,0,-3.4,0,0,20,23.2,89,227,1016.2,0,2,24100,34,
2017-04-10 2:00:00 pm,2.7,0.8,-3.4,0,0,20.3,24.7,86.9,430,1015.9,0,3,24100,42,
2017-04-10 3:00:00 pm,3.6,1.4,-3.3,0,0,20.8,26.3,85,598,1015.6,0,4,24100,40,
2017-04-10 4:00:00 pm,4.1,1.6,-3.3,0,0,22.1,30.4,83.4,675,1015.2,0,3,21599,40,
2017-04-10 5:00:00 pm,4.3,1.6,-3.3,0,0,23.8,34.4,82.6,667,1014.9,0,3,19100,29,
2017-04-10 6:00:00 pm,4.3,1.7,-3.2,0,0,25.2,38.5,83,597,1014.5,0,2,16600,17,
2017-04-10 7:00:00 pm,4.2,1.9,-3.2,0,0,25.9,41.9,84.6,487,1014.2,0,2,19100,29,
2017-04-10 8:00:00 pm,4,1.9,-3.2,0,0,25.7,45.2,86.4,367,1014,0,1,21599,41,
2017-04-10 9:00:00 pm,3.5,1.6,-3.1,0,0,24.6,48.6,87,270,1013.7,0,0,24100,52,
2017-04-10 10:00:00 pm,2.8,0.6,-3.1,0,0,22.5,43.6,85.6,214,1014.2,0,0,24100,22,
2017-04-10 11:00:00 pm,1.9,-0.6,-3.1,0,0,20,38.5,83.4,185,1014.8,0,0,24100,0,
2017-04-11 12:00:00 am,1.1,-1.6,-3.1,0,0,17.7,33.5,82,154,1015.3,0,0,24100,0,
2017-04-11 1:00:00 am,0.5,-2.1,-3.1,0,0,16.5,30,82.7,103,1015.2,1,0,24100,0,
2017-04-11 2:00:00 am,0.1,-2.1,-3,0,0,16.3,26.5,85,44,1015.1,1,0,24100,0,
2017-04-11 3:00:00 am,0.1,-1.6,-3,0,0,17,23,88,0,1015,1,0,24100,0,
2017-04-11 4:00:00 am,0.4,-0.9,-3,0,0,18.1,24.4,90.8,0,1014.6,1,0,21666,0,
2017-04-11 5:00:00 am,0.8,-0.2,-3,0,0,19.4,25.7,93.2,0,1014.1,1,0,19233,0,
2017-04-11 6:00:00 am,1.2,0.5,-3,0,0,20.4,27,95,0,1013.7,0,0,16800,0,
2017-04-11 7:00:00 am,1.4,0.9,-2.9,0,0,20.9,27,96,4,1013.3,0,0,14866,0,
2017-04-11 8:00:00 am,1.5,1,-2.9,0,0,20.9,27,96.6,3,1012.9,1,0,12933,0,
2017-04-11 9:00:00 am,1.5,1.1,-2.9,0.3,0,20.6,27,97,0,1012.5,1,0,11000,0,
2017-04-11 10:00:00 am,1.5,1.1,-2.9,0.4,0,20,23.6,97.5,0,1012.6,1,0,8766,0,
2017-04-11 11:00:00 am,1.5,1.2,-2.8,0.8,0,18.8,20.3,97.9,0,1012.8,1,0,6533,0,
2017-04-11 12:00:00 pm,1.9,1.1,-2.9,0.3,0,21.5,28.4,94,11,1011.3,1,0,14900,0,
2017-04-11 1:00:00 pm,2.2,1.5,-2.9,0.4,0,19.7,25.9,95.4,35,1011.6,1,0,13866,0,
2017-04-11 2:00:00 pm,2.4,1.9,-2.8,0.8,0,16.5,23.4,96,64,1012,1,1,12833,0,
2017-04-11 3:00:00 pm,2.6,1.9,-2.8,0.9,0,11.4,20.9,95,91,1012.3,1,1,11800,0,
2017-04-11 4:00:00 pm,2.5,1.3,-2.8,0.7,0,10.8,28,91.6,109,1013.8,1,2,15900,0,
2017-04-11 5:00:00 pm,2.3,0.3,-2.7,0.3,0,20.2,35,86.9,131,1015.2,1,2,19999,3,
2017-04-11 6:00:00 pm,1.9,-0.8,-2.7,0,0,29.5,42.1,82,171,1016.7,0,1,24100,6,
2017-04-11 7:00:00 pm,1.4,-2,-2.7,0,0,33.9,40.9,78.1,236,1017.9,0,2,24100,16,
2017-04-11 8:00:00 pm,0.6,-3.2,-2.7,0,0,33.9,39.7,75.5,303,1019.1,0,1,24100,25,
2017-04-11 9:00:00 pm,-0.5,-4.5,-2.7,0,0,31.2,38.5,74,339,1020.3,0,0,24100,35,
2017-04-11 10:00:00 pm,-2.1,-6.1,-2.7,0,0,27.1,35.3,73.6,324,1021.6,0,0,24100,43,
2017-04-11 11:00:00 pm,-3.7,-7.6,-2.8,0,0,22.7,32,74.1,266,1023,0,0,24100,26,
2017-04-12 12:00:00 am,-5,-8.8,-2.8,0,0,18.8,28.8,75,190,1024.3,0,0,24100,0,
2017-04-12 1:00:00 am,-5.7,-9.3,-2.9,0,0,15.8,25.3,76.1,111,1025.1,0,0,24100,0,
2017-04-12 2:00:00 am,-6,-9.3,-3,0,0,13.4,21.8,77.4,44,1026,0,0,24100,0,
2017-04-12 3:00:00 am,-6,-9.1,-3.1,0,0,10.8,18.4,79,0,1026.8,0,0,24100,0,
2017-04-12 4:00:00 am,-6.2,-8.9,-3.2,0,0,7.7,12.7,81,0,1027.2,0,0,24100,0,
2017-04-12 5:00:00 am,-6.5,-8.8,-3.3,0,0,4.4,7.1,83.4,0,1027.5,0,0,24100,0,
2017-04-12 6:00:00 am,-6.9,-8.8,-3.5,0,0,1.3,1.4,86,0,1027.9,1,0,24100,0,
2017-04-12 7:00:00 am,-7.4,-8.9,-3.6,0,0,1.9,3.4,88.6,6,1028.2,1,0,24100,0,
2017-04-12 8:00:00 am,-7.7,-9,-3.7,0,0,4.1,5.3,90.3,6,1028.4,1,0,24100,0,
2017-04-12 9:00:00 am,-7.3,-8.7,-3.8,0,0,5.5,7.2,90,0,1028.7,1,0,24100,0,
2017-04-12 10:00:00 am,-6.1,-7.9,-3.9,0,0,5.9,7.6,87.2,0,1028.7,0,0,24100,0,
2017-04-12 11:00:00 am,-4.4,-6.9,-3.9,0,0,6.1,7.9,82.5,17,1028.8,0,1,24100,47,
2017-04-12 12:00:00 pm,-2.4,-7.5,-3.7,0,0,3.2,5,68,108,1028.7,0,2,24100,37,
2017-04-12 1:00:00 pm,-1.4,-7.2,-3.7,0,0,6.2,7.9,64.5,277,1028.7,0,2,24100,44,
2017-04-12 2:00:00 pm,-0.7,-7,-3.6,0,0,10.1,10.8,62.3,483,1028.7,0,3,24100,52,
2017-04-12 3:00:00 pm,-0.2,-6.8,-3.6,0,0,13.7,13.7,61,658,1028.7,0,4,24100,60,
2017-04-12 4:00:00 pm,0.3,-6.5,-3.5,0,0,16.1,16.1,60.2,751,1028.3,0,4,24100,60,
2017-04-12 5:00:00 pm,0.6,-6.1,-3.5,0,0,17.3,17.3,60.4,764,1028,0,4,24100,60,
2017-04-12 6:00:00 pm,0.7,-5.7,-3.5,0,0,17.4,17.4,62,712,1027.6,0,3,24100,60,
2017-04-12 7:00:00 pm,0.5,-5.3,-3.4,0,0,16.7,17.3,65.3,610,1027.3,0,2,24100,40,
2017-04-12 8:00:00 pm,-0.1,-5,-3.4,0,0,15.5,17.6,69.7,488,1027.1,0,1,24100,20,
2017-04-12 9:00:00 pm,-1,-5,-3.4,0,0,14.5,18,74,380,1026.8,0,0,24100,1,
2017-04-12 10:00:00 pm,-2,-5.4,-3.4,0,0,13.9,16.6,77.5,306,1026.8,0,0,24100,13,
2017-04-12 11:00:00 pm,-3.1,-6.1,-3.4,0,0,13.6,15.1,80.1,254,1026.7,0,0,24100,14,
2017-04-13 12:00:00 am,-4.1,-6.7,-3.5,0,0,13.4,13.7,82,200,1026.7,0,0,24100,0,
2017-04-13 1:00:00 am,-4.8,-7.2,-3.5,0,0,13,13,83.4,128,1026.5,0,0,24100,0,
2017-04-13 2:00:00 am,-5.3,-7.5,-3.6,0,0,12.4,12.4,84.7,54,1026.4,0,0,24100,0,
2017-04-13 3:00:00 am,-5.6,-7.6,-3.6,0,0,11.8,11.8,86,0,1026.2,0,0,24100,0,
2017-04-13 4:00:00 am,-5.8,-7.5,-3.7,0,0,11.4,11.4,87.6,0,1025.8,0,0,24100,0,
2017-04-13 5:00:00 am,-5.9,-7.4,-3.8,0,0,11.3,11.3,89.4,0,1025.4,0,0,24100,0,
2017-04-13 6:00:00 am,-6,-7.3,-3.9,0,0,11.8,11.8,91,0,1025,0,0,24100,0,
2017-04-13 7:00:00 am,-6.3,-7.3,-3.9,0,0,12.8,12.8,92.3,5,1024.6,0,0,17666,0,
2017-04-13 8:00:00 am,-6.5,-7.4,-3.9,0,0,13.9,13.9,93.3,4,1024.3,0,0,11233,0,
2017-04-13 9:00:00 am,-6.7,-7.4,-4,0,0,14.3,14.3,94,0,1023.9,0,0,4800,0,
2017-04-13 10:00:00 am,-6.6,-7.3,-4,0,0,13.6,13.6,94.4,0,1023.8,0,0,3200,0,
2017-04-13 11:00:00 am,-6.3,-7,-4,0,0,12,13.4,94.7,4,1023.8,0,0,1599,0,
2017-04-13 12:00:00 pm,-4,-4.6,-4.2,0,0,10.7,14.4,95,27,1022.4,0,1,0,0,
2017-04-13 1:00:00 pm,-3.2,-3.9,-4.1,0,0,11.8,16.6,95.1,59,1021.8,0,2,600,0,
2017-04-13 2:00:00 pm,-2.4,-3.1,-4.1,0,0,13.2,18.7,95.2,99,1021.2,0,3,1199,0,
2017-04-13 3:00:00 pm,-1.7,-2.4,-4,0,0,15.5,20.9,95,134,1020.6,0,3,1800,0,
2017-04-13 4:00:00 pm,-1.2,-2,-4,0.3,0,19.4,25.9,94.3,154,1019.4,1,2,1566,0,
2017-04-13 5:00:00 pm,-0.9,-1.8,-3.9,0.8,0,24.1,31,93.5,159,1018.3,1,2,1333,0,
2017-04-13 6:00:00 pm,-0.8,-1.8,-3.9,1.1,0,28.8,36,93,147,1017.1,1,2,1100,0,
2017-04-13 7:00:00 pm,-0.9,-1.8,-3.8,1.1,0,32.7,41.8,93.2,121,1016.2,1,1,1100,0,
2017-04-13 8:00:00 pm,-1.1,-1.9,-3.8,0.9,0,35.9,47.5,93.8,88,1015.4,1,1,1100,0,
2017-04-13 9:00:00 pm,-1.4,-2.2,-3.8,0.8,0,38.3,53.3,94,60,1014.5,1,0,1100,0,
2017-04-13 10:00:00 pm,-1.7,-2.6,-3.7,0.8,0,40,55,93.6,44,1014.5,1,0,1366,0,
2017-04-13 11:00:00 pm,-2.1,-3.1,-3.7,0.8,0,40.8,56.6,92.8,37,1014.5,1,0,1633,0,
2017-04-14 12:00:00 am,-2.5,-3.6,-3.7,0.9,0,40.7,58.3,92,32,1014.5,1,0,1900,0,
2017-04-14 1:00:00 am,-2.9,-4.1,-3.7,0.8,0,39.8,56.9,91.6,21,1014.6,1,0,2133,0,
2017-04-14 2:00:00 am,-3.2,-4.4,-3.7,0.6,0,38.8,55.4,91.4,9,1014.7,1,0,2366,0,
2017-04-14 3:00:00 am,-3.3,-4.6,-3.7,0.4,0,37.9,54,91,0,1014.8,1,0,2600,0,
2017-04-14 4:00:00 am,-3.1,-4.5,-3.7,0.9,0,37.1,54.1,90.2,0,1014.9,1,0,4766,0,
2017-04-14 5:00:00 am,-2.9,-4.4,-3.7,0.6,0,36.5,54.2,89.2,0,1015.1,1,0,6933,0,
2017-04-14 6:00:00 am,-3.1,-4.8,-3.7,0.4,0,36.3,54.4,88,0,1015.2,1,0,9100,0,
2017-04-14 7:00:00 am,-3.8,-5.7,-3.7,0.2,0,37,55.8,86.8,4,1015.8,1,0,8866,0,
2017-04-14 8:00:00 am,-4.8,-6.9,-3.7,0,0,38.1,57.2,85.6,5,1016.3,0,0,8633,0,
2017-04-14 9:00:00 am,-5.7,-7.9,-3.7,0,0,38.7,58.7,84,0,1016.9,0,0,8400,0,
2017-04-14 10:00:00 am,-6,-8.5,-3.7,0,0,38.5,54.5,81.9,0,1017.6,0,0,13633,0,
2017-04-14 11:00:00 am,-5.7,-8.7,-3.7,0,0,37.4,50.3,79,5,1018.2,0,1,18866,14,
2017-04-14 12:00:00 pm,-1.5,-3.8,-3.4,0.2,0,34.7,46.4,84,58,1019,1,1,20100,9,
2017-04-14 1:00:00 pm,-1.1,-4.3,-3.4,0,0,35.5,44,78.7,209,1019.5,0,2,21433,13,
2017-04-14 2:00:00 pm,-0.6,-4.9,-3.4,0,0,35.8,41.6,72.9,399,1019.9,0,3,22766,10,
2017-04-14 3:00:00 pm,-0.3,-5.5,-3.3,0,0,35.4,39.2,68,560,1020.4,0,4,24100,0,
2017-04-14 4:00:00 pm,-0.1,-5.9,-3.3,0,0,34.1,36.5,65.1,644,1020.6,0,4,24100,0,
2017-04-14 5:00:00 pm,-0.2,-6.1,-3.2,0,0,32.1,33.7,64,654,1020.7,0,4,24100,0,
2017-04-14 6:00:00 pm,-0.3,-6.2,-3.2,0,0,29.5,31,64,610,1020.9,0,3,24100,0,
2017-04-14 7:00:00 pm,-0.4,-6.3,-3.2,0,0,26.6,28.3,64.6,530,1020.9,0,2,24100,0,
2017-04-14 8:00:00 pm,-0.7,-6.4,-3.2,0,0,23.5,25.7,65.6,437,1020.8,0,1,24100,0,
2017-04-14 9:00:00 pm,-1.5,-6.8,-3.1,0,0,20.3,23,67,353,1020.8,0,0,24100,0,
2017-04-14 10:00:00 pm,-2.7,-7.7,-3.2,0,0,17.2,20.8,68.8,293,1021.2,0,0,24100,11,
2017-04-14 11:00:00 pm,-4.2,-8.6,-3.2,0,0,14.4,18.5,70.9,247,1021.6,0,0,24100,15,
2017-04-15 12:00:00 am,-5.3,-9.4,-3.3,0,0,12.2,16.2,73,195,1022,0,0,24100,0,
2017-04-15 1:00:00 am,-5.8,-9.5,-3.4,0,0,11,15.7,75,125,1022.1,0,0,24100,0,
2017-04-15 2:00:00 am,-5.9,-9.3,-3.5,0,0,10.3,15.2,76.7,53,1022.1,0,0,24100,0,
2017-04-15 3:00:00 am,-5.6,-8.8,-3.5,0,0,9.7,14.8,78,0,1022.2,0,0,24100,0,
2017-04-15 4:00:00 am,-5.3,-8.4,-3.6,0,0,8.4,12.2,78.7,0,1021.9,0,0,24100,0,
2017-04-15 5:00:00 am,-5.1,-8.1,-3.6,0,0,6.6,9.7,79,0,1021.5,0,0,24100,0,
2017-04-15 6:00:00 am,-4.9,-8,-3.7,0,0,4.7,7.2,79,0,1021.2,0,0,24100,0,
2017-04-15 7:00:00 am,-4.8,-7.9,-3.7,0,0,3,5.6,78.9,9,1021.1,0,0,24100,0,
2017-04-15 8:00:00 am,-4.8,-7.9,-3.7,0,0,2,4.1,78.6,10,1020.9,0,0,24100,0,
2017-04-15 9:00:00 am,-4.6,-7.9,-3.8,0,0,2.6,2.6,78,0,1020.8,0,0,24100,0,
2017-04-15 10:00:00 am,-4.3,-7.7,-3.7,0,0,4.2,5,77,0,1020.6,0,0,24100,0,
2017-04-15 11:00:00 am,-3.7,-7.4,-3.7,0,0,6.2,7.6,75.6,0,1020.4,0,1,24100,0,
2017-04-15 12:00:00 pm,-3.6,-6.1,-3.9,0,0,12.5,14,83,87,1019.1,0,1,24100,33,
2017-04-15 1:00:00 pm,-2.8,-5.7,-3.9,0,0,14.9,15.5,80.4,251,1018.5,0,2,24100,34,
2017-04-15 2:00:00 pm,-2.1,-5.4,-3.8,0,0,17.1,17.1,77.9,453,1018,0,3,24100,36,
2017-04-15 3:00:00 pm,-1.5,-5,-3.8,0,0,19.1,19.1,77,621,1017.4,0,3,24100,37,
2017-04-15 4:00:00 pm,-1.1,-4.4,-3.7,0,0,20.8,21,78.4,702,1016.6,0,4,22966,29,
2017-04-15 5:00:00 pm,-0.9,-3.7,-3.7,0,0,22.2,23.6,81.2,689,1015.8,0,3,21833,16,
2017-04-15 6:00:00 pm,-0.8,-3.1,-3.6,0,0,23.2,26.3,84,590,1015,0,3,20700,0,
2017-04-15 7:00:00 pm,-0.7,-2.8,-3.6,0,0,23.9,27.4,85.8,418,1014.3,0,1,21833,0,
2017-04-15 8:00:00 pm,-0.8,-2.7,-3.5,0,0,24.3,28.4,86.7,226,1013.6,0,0,22966,0,
2017-04-15 9:00:00 pm,-0.9,-2.8,-3.5,0,0,24.3,29.5,87,80,1012.9,0,0,24100,0,
2017-04-15 10:00:00 pm,-1.3,-3.1,-3.5,0,0,23.8,29.2,87.2,20,1012.8,0,0,23500,0,
2017-04-15 11:00:00 pm,-1.6,-3.3,-3.5,0,0,23.1,28.8,87.7,22,1012.7,0,0,22900,0,
2017-04-16 12:00:00 am,-1.7,-3.3,-3.5,0,0,22.5,28.4,89,39,1012.6,0,0,22300,0,
2017-04-16 1:00:00 am,-1.6,-2.8,-3.5,0,0,22.3,24.2,91.2,36,1012.2,0,0,16566,0,
2017-04-16 2:00:00 am,-1.5,-2.5,-3.5,0,0,20.5,20.5,92.8,17,1011.9,0,0,10833,0,
2017-04-16 3:00:00 am,-1.8,-2.9,-3.5,0,0,15.1,15.8,92,0,1011.5,0,0,5100,0,
2017-04-16 4:00:00 am,-2.7,-4.4,-3.5,0.3,0,8.1,20.5,87.7,0,1011.5,1,0,9699,0,
2017-04-16 5:00:00 am,-3.9,-6.6,-3.5,0.4,0,13.6,25.2,81.6,0,1011.6,1,0,14300,0,
2017-04-16 6:00:00 am,-5.3,-8.8,-3.5,0.4,0,22.2,29.9,76,0,1011.6,1,0,18900,0,
2017-04-16 7:00:00 am,-6.4,-10.5,-3.5,0.3,0,25.2,31.1,72.7,2,1011.6,1,0,20633,0,
2017-04-16 8:00:00 am,-7.3,-11.6,-3.6,0,0,24.4,32.3,71.1,1,1011.7,0,0,22366,0,
2017-04-16 9:00:00 am,-7.8,-12.3,-3.6,0,0,23.4,33.5,70,0,1011.7,0,0,24100,0,
2017-04-16 10:00:00 am,-8.2,-12.9,-3.7,0,0,24.6,35.4,68.6,0,1012,0,0,24100,20,
2017-04-16 11:00:00 am,-8.3,-13.3,-3.7,0,0,27.4,37.3,67.1,16,1012.2,0,1,24100,8,
2017-04-16 12:00:00 pm,-6.3,-10.4,-3.9,0,0,23.4,33.5,73,87,1014,0,2,24100,4,
2017-04-16 1:00:00 pm,-6,-10.7,-3.9,0,0,23.6,31.2,69.3,152,1014.1,0,3,24100,3,
2017-04-16 2:00:00 pm,-5.6,-11.1,-3.9,0,0,23.1,28.9,65.1,227,1014.1,0,4,24100,2,
2017-04-16 3:00:00 pm,-5.2,-11.5,-3.9,0,0,22.1,26.6,61,298,1014.2,0,4,24100,2,
2017-04-16 4:00:00 pm,-4.4,-11.5,-3.9,0,0,21.1,23.9,57.5,353,1014.1,0,4,24100,13,
2017-04-16 5:00:00 pm,-3.6,-11.3,-3.8,0,0,20.5,21.1,55.2,391,1014,0,4,24100,25,
2017-04-16 6:00:00 pm,-3.1,-10.9,-3.8,0,0,20.3,20.3,55,410,1013.9,0,3,24100,34,
2017-04-16 7:00:00 pm,-3.2,-10.4,-3.8,0,0,20.5,20.5,57.2,409,1014.1,0,2,24100,32,
2017-04-16 8:00:00 pm,-3.8,-10.1,-3.8,0,0,21,21,61.2,391,1014.2,0,1,24100,29,
2017-04-16 9:00:00 pm,-4.8,-10.2,-3.8,0,0,21.3,21.3,66,360,1014.4,0,0,24100,25,
2017-04-16 10:00:00 pm,-6.2,-10.6,-3.9,0,0,21.3,22.7,70.7,316,1014.8,0,0,24100,27,
2017-04-16 11:00:00 pm,-7.6,-11.4,-3.9,0,0,21,26.6,74.3,262,1015.2,0,0,24100,19,
2017-04-17 12:00:00 am,-8.9,-12.3,-4,0,0,20.8,30.6,76,196,1015.6,0,0,24100,0,
2017-04-17 1:00:00 am,-9.8,-13.3,-4.1,0,0,21,30.7,75.2,120,1015.8,0,0,24100,0,
2017-04-17 2:00:00 am,-10.3,-14.2,-4.2,0,0,21.1,30.8,73,49,1016.1,0,0,24100,0,
2017-04-17 3:00:00 am,-10.8,-15,-4.3,0,0,20.6,31,71,0,1016.3,0,0,24100,0,
2017-04-17 4:00:00 am,-11.3,-15.6,-4.4,0,0,19.3,29.3,70.4,0,1016.4,0,0,24100,0,
2017-04-17 5:00:00 am,-11.9,-16.1,-4.5,0,0,17.4,27.6,71,0,1016.4,0,0,24100,0,
2017-04-17 6:00:00 am,-12.5,-16.5,-4.6,0,0,15.5,25.9,72,0,1016.5,0,0,24100,0,
2017-04-17 7:00:00 am,-13,-16.8,-4.7,0,0,13.9,26,72.9,6,1016.6,0,0,24100,0,
2017-04-17 8:00:00 am,-13.4,-17,-4.8,0,0,13.4,26.2,73.6,6,1016.8,0,0,24100,0,
2017-04-17 9:00:00 am,-13.3,-16.9,-4.9,0,0,14.9,26.3,74,1,1016.9,0,0,24100,8,
2017-04-17 10:00:00 am,-12.8,-16.4,-5,0,0,18.9,27.7,73.9,0,1017.2,0,0,24100,0,
2017-04-17 11:00:00 am,-11.9,-15.7,-5.1,0,0,24.1,29.2,73,20,1017.6,0,1,24100,34,
2017-04-17 12:00:00 pm,-11.1,-16.2,-5.7,0,0,25.8,34.6,66,114,1017.5,0,2,24100,36,
2017-04-17 1:00:00 pm,-10,-15.3,-5.7,0,0,28,32.5,65.1,284,1017.4,0,3,24100,34,
2017-04-17 2:00:00 pm,-9.1,-14.4,-5.7,0,0,29.7,30.5,65.3,486,1017.3,0,4,24100,32,
2017-04-17 3:00:00 pm,-8.4,-13.8,-5.7,0,0,30.6,30.6,65,652,1017.2,0,5,24100,30,
2017-04-17 4:00:00 pm,-8,-13.7,-5.6,0,0,30.5,30.5,63.2,730,1017.6,0,4,24100,30,
2017-04-17 5:00:00 pm,-7.7,-13.9,-5.6,0,0,30,30,60.7,733,1017.9,0,4,24100,29,
2017-04-17 6:00:00 pm,-7.6,-14.2,-5.6,0,0,29.7,29.7,59,689,1018.3,0,3,24100,28,
2017-04-17 7:00:00 pm,-7.7,-14.3,-5.6,0,0,30.2,30.2,58.9,621,1018.7,0,2,24100,36,
2017-04-17 8:00:00 pm,-8.1,-14.4,-5.6,0,0,30.1,31.1,59.9,544,1019,0,1,24100,44,
2017-04-17 9:00:00 pm,-8.7,-14.8,-5.6,0,0,27.9,32,61,470,1019.4,0,0,24100,52,
2017-04-17 10:00:00 pm,-9.6,-15.6,-5.7,0,0,22.8,29.3,61.6,404,1020.1,0,0,24100,40,
2017-04-17 11:00:00 pm,-10.5,-16.2,-5.8,0,0,17.5,26.5,62.4,340,1020.9,0,0,24100,18,
2017-04-18 12:00:00 am,-10.8,-16.1,-5.8,0,0,15.2,23.8,65,263,1021.6,0,0,24100,0,
2017-04-18 1:00:00 am,-10.4,-14.9,-5.9,0,0,17.9,29.2,69.8,166,1022.3,0,0,22266,0,
2017-04-18 2:00:00 am,-9.8,-13.4,-5.9,0,0,23.3,34.6,75,69,1022.9,0,0,20433,0,
2017-04-18 3:00:00 am,-9.6,-12.7,-6,0,0,27.6,40,78,0,1023.6,0,0,18600,0,
2017-04-18 4:00:00 am,-10.3,-13.5,-6.1,0,0,28.1,40.9,77.2,0,1024.4,0,0,20433,0,
2017-04-18 5:00:00 am,-11.6,-15.2,-6.1,0,0,25.7,41.9,74.2,0,1025.2,0,0,22266,0,
2017-04-18 6:00:00 am,-12.8,-16.8,-6.2,0,0,22.5,42.8,72,0,1026,0,0,24100,0,
2017-04-18 7:00:00 am,-13.6,-17.5,-6.3,0,0,19.6,42,72.2,8,1026.6,0,0,24100,0,
2017-04-18 8:00:00 am,-13.8,-17.4,-6.4,0,0,17.8,41.2,73.7,7,1027.3,0,0,24100,0,
2017-04-18 9:00:00 am,-13.3,-17,-6.5,0,0,17.9,40.3,74,1,1027.9,0,0,24100,12,
2017-04-18 10:00:00 am,-12.3,-16.3,-6.6,0,0,20.3,39,71.7,0,1028.6,0,0,24100,0,
2017-04-18 11:00:00 am,-11,-15.7,-6.6,0,0,24,37.7,67.9,25,1029.4,0,1,24100,52,
2017-04-18 12:00:00 pm,-9.4,-15.9,-6.8,0,0,23.7,34.9,59,130,1030.1,0,2,24100,60,
2017-04-18 1:00:00 pm,-8.2,-15.2,-6.8,0,0,24.4,30.6,56.5,314,1030.7,0,3,24100,60,
2017-04-18 2:00:00 pm,-7.2,-14.6,-6.7,0,0,24.2,26.3,55,532,1031.2,0,4,24100,60,
2017-04-18 3:00:00 pm,-6.4,-14.1,-6.7,0,0,23.4,23.4,54,713,1031.8,0,5,24100,60,
2017-04-18 4:00:00 pm,-5.8,-13.7,-6.6,0,0,22,22,53.4,803,1032.3,0,5,24100,60,
2017-04-18 5:00:00 pm,-5.3,-13.3,-6.5,0,0,20.3,20.3,53.3,810,1032.8,0,4,24100,60,
2017-04-18 6:00:00 pm,-5,-12.8,-6.4,0,0,18.6,18.6,54,758,1033.3,0,3,24100,60,
2017-04-18 7:00:00 pm,-4.8,-12.2,-6.4,0,0,17.2,17.2,55.8,669,1033.6,0,2,24100,60,
2017-04-18 8:00:00 pm,-5,-11.7,-6.4,0,0,15.9,15.9,58.8,565,1033.8,0,1,24100,60,
2017-04-18 9:00:00 pm,-5.7,-11.6,-6.3,0,0,14.4,14.4,63,470,1034.1,0,0,24100,60,
2017-04-18 10:00:00 pm,-7.1,-11.9,-6.4,0,0,12.4,12.4,68.1,397,1034.8,0,0,24100,60,
2017-04-18 11:00:00 pm,-8.8,-12.6,-6.5,0,0,9.9,10.4,73.5,334,1035.6,0,0,24100,42,
2017-04-19 12:00:00 am,-10.3,-13.4,-6.5,0,0,7.1,9,78,262,1036.3,0,0,24100,0,
2017-04-19 1:00:00 am,-11.3,-13.9,-6.6,0,0,5.1,10.1,81,167,1036.6,0,0,24100,0,
2017-04-19 2:00:00 am,-11.9,-14.2,-6.8,0,0,6.6,11.2,82.5,70,1036.9,0,0,24100,0,
2017-04-19 3:00:00 am,-12,-14.3,-6.9,0,0,9.3,12.2,83,0,1037.2,0,0,24100,0,
2017-04-19 4:00:00 am,-11.7,-14,-7,0,0,10.8,13.2,82.8,0,1037,0,0,24100,0,
2017-04-19 5:00:00 am,-11.4,-13.8,-7.1,0,0,11,14.2,82.9,0,1036.8,0,0,24100,0,
2017-04-19 6:00:00 am,-11.5,-13.6,-7.2,0,0,10.9,15.1,84,0,1036.6,0,0,24100,0,
2017-04-19 7:00:00 am,-11.9,-13.7,-7.2,0,0,11,14.3,86.6,8,1036.3,0,0,24100,0,
2017-04-19 8:00:00 am,-12.3,-13.8,-7.3,0,0,11.7,13.4,88.8,6,1036.1,1,0,24100,0,
2017-04-19 9:00:00 am,-11.8,-13.4,-7.4,0,0,12.5,12.6,88,1,1035.8,0,0,24100,15,
2017-04-19 10:00:00 am,-10,-12.4,-7.4,0,0,13.2,14.9,82.6,0,1035.7,0,0,24100,0,
2017-04-19 11:00:00 am,-7.3,-11.2,-7.4,0,0,14.4,17.2,73.8,30,1035.6,0,1,24100,58,
2017-04-19 12:00:00 pm,-4.7,-10.5,-7.5,0,0,15.1,19.4,64,132,1035.7,0,2,24100,60,
2017-04-19 1:00:00 pm,-2.4,-9.7,-7.4,0,0,17.5,21,57.2,315,1035.1,0,3,24100,60,
2017-04-19 2:00:00 pm,-0.8,-9.3,-7.2,0,0,20.2,22.6,52.3,532,1034.4,0,4,24100,60,
2017-04-19 3:00:00 pm,0.4,-8.8,-7.1,0,0,22.4,24.1,50,711,1033.8,0,5,24100,60,
2017-04-19 4:00:00 pm,1.2,-7.9,-7,0,0,23.7,24.6,50.7,802,1033.1,0,4,24100,60,
2017-04-19 5:00:00 pm,1.7,-6.8,-6.9,0,0,24.2,25.1,53.4,810,1032.3,0,4,24100,60,
2017-04-19 6:00:00 pm,1.9,-5.7,-6.8,0,0,24.4,25.6,57,762,1031.6,0,3,24100,60,
2017-04-19 7:00:00 pm,2,-4.8,-6.7,0,0,24.4,25.2,60.3,682,1031.1,0,2,24100,60,
2017-04-19 8:00:00 pm,1.7,-4.5,-6.6,0,0,24.2,24.8,63,588,1030.5,0,1,24100,60,
2017-04-19 9:00:00 pm,0.8,-5,-6.5,0,0,23.5,24.5,65,500,1030,0,0,24100,60,
2017-04-19 10:00:00 pm,-0.9,-6.4,-6.5,0,0,22.3,25,66.1,427,1030,0,0,24100,60,
2017-04-19 11:00:00 pm,-2.9,-8.2,-6.5,0,0,20.9,25.4,66.6,360,1029.9,0,0,24100,44,
2017-04-20 12:00:00 am,-4.7,-9.9,-6.5,0,0,19.6,25.9,67,281,1029.9,0,0,24100,0,
2017-04-20 1:00:00 am,-6,-11,-6.6,0,0,18.7,25.6,67.5,178,1029.7,0,0,24100,0,
2017-04-20 2:00:00 am,-6.7,-11.6,-6.6,0,0,18.1,25.2,67.9,74,1029.6,0,0,24100,0,
2017-04-20 3:00:00 am,-7.1,-12,-6.7,0,0,17.6,24.8,68,0,1029.4,0,0,24100,0,
2017-04-20 4:00:00 am,-7.4,-12.3,-6.8,0,0,17,24.4,67.7,0,1029.2,0,0,24100,0,
2017-04-20 5:00:00 am,-7.6,-12.6,-6.8,0,0,16.4,23.9,67.5,0,1028.9,0,0,24100,0,
2017-04-20 6:00:00 am,-8,-12.8,-6.9,0,0,16,23.4,68,0,1028.7,0,0,24100,0,
2017-04-20 7:00:00 am,-8.5,-13,-7,0,0,15.8,22.3,69.5,8,1028.5,0,0,24100,0,
2017-04-20 8:00:00 am,-8.8,-13,-7,0,0,15.8,21.2,71.2,6,1028.3,0,0,24100,0,
2017-04-20 9:00:00 am,-8.4,-12.5,-7,0,0,16.1,20.2,72,1,1028.1,0,0,24100,7,
2017-04-20 10:00:00 am,-7.1,-11.4,-7,0,0,16.4,20.5,71.2,0,1028,0,0,24100,0,
2017-04-20 11:00:00 am,-5.1,-9.8,-7,0,0,17.1,20.9,69.3,20,1027.8,0,1,24100,5,
2017-04-20 12:00:00 pm,-2.5,-7.8,-6.9,0,0,17.3,20.2,67,102,1028.1,0,2,24100,0,
2017-04-20 1:00:00 pm,-0.7,-7.5,-6.9,0,0,18.2,20.4,60,242,1027.9,0,3,24100,0,
2017-04-20 2:00:00 pm,0.8,-7.3,-6.8,0,0,18.8,20.6,54.5,412,1027.7,0,4,24100,0,
2017-04-20 3:00:00 pm,1.8,-6.9,-6.7,0,0,19.2,20.9,52,563,1027.5,0,5,24100,0,
2017-04-20 4:00:00 pm,2.5,-6,-6.6,0,0,19.7,20.4,53.5,654,1027.2,0,4,24100,0,
2017-04-20 5:00:00 pm,2.8,-4.7,-6.5,0,0,20.1,20.1,57.7,679,1026.9,0,3,24100,0,
2017-04-20 6:00:00 pm,2.7,-3.6,-6.3,0,0,20.3,20.3,63,644,1026.6,0,3,24100,0,
2017-04-20 7:00:00 pm,2.5,-2.8,-6.3,0,0,20.1,20.1,67.8,554,1026.5,0,2,24100,0,
2017-04-20 8:00:00 pm,2,-2.5,-6.2,0,0,19.4,19.4,71.8,441,1026.4,0,1,24100,0,
2017-04-20 9:00:00 pm,1.3,-2.6,-6.1,0,0,18.2,18.2,75,340,1026.3,0,0,24100,0,
2017-04-20 10:00:00 pm,0.4,-3.1,-6,0,0,16.6,16.6,77.4,274,1026.5,0,0,24100,0,
2017-04-20 11:00:00 pm,-0.7,-3.9,-6,0,0,14.9,14.9,79.2,230,1026.6,0,0,24100,0,
2017-04-21 12:00:00 am,-1.7,-4.5,-5.9,0,0,13.5,13.5,81,184,1026.8,0,0,24100,0,
2017-04-21 1:00:00 am,-2.5,-5,-5.9,0,0,12.8,12.8,83,120,1026.8,0,0,24100,0,
2017-04-21 2:00:00 am,-3.1,-5.3,-5.9,0,0,12.3,12.3,85.1,51,1026.9,0,0,24100,0,
2017-04-21 3:00:00 am,-3.6,-5.4,-5.9,0,0,11.6,11.6,87,0,1026.9,0,0,24100,0,
2017-04-21 4:00:00 am,-4,-5.6,-5.9,0,0,10.3,10.3,88.6,0,1026.7,0,0,24100,0,
2017-04-21 5:00:00 am,-4.3,-5.7,-5.9,0,0,8.6,8.6,89.7,0,1026.5,0,0,24100,0,
2017-04-21 6:00:00 am,-4.6,-6,-5.9,0,0,6.9,6.9,90,0,1026.3,0,0,24100,0,
2017-04-21 7:00:00 am,-4.8,-6.3,-5.9,0,0,5.3,8.2,89.6,6,1026.5,0,0,24100,0,
2017-04-21 8:00:00 am,-4.9,-6.4,-5.9,0,0,3.7,12,89.2,6,1026.7,0,0,24100,0,
2017-04-21 9:00:00 am,-4.7,-6.1,-5.9,0,0,4.7,15.8,90,1,1026.9,0,0,24100,0,
2017-04-21 10:00:00 am,-4.1,-5.2,-5.9,0,0,9.9,21.8,92.4,0,1027.4,0,0,19700,0,
2017-04-21 11:00:00 am,-3.3,-4,-5.8,0,0,16.5,27.8,94.9,5,1027.8,0,1,15299,0,
2017-04-21 12:00:00 pm,0.1,-2.9,-6.1,0,0,18.6,27,80,106,1027.5,0,2,24100,23,
2017-04-21 1:00:00 pm,0.8,-2.2,-6,0,0,22.4,30.7,80.1,252,1027.6,0,2,24100,15,
2017-04-21 2:00:00 pm,0.9,-1.9,-5.9,0,0,25.6,34.4,81.6,420,1027.7,0,3,24100,6,
2017-04-21 3:00:00 pm,0.7,-1.8,-5.8,0,0,27.9,38.2,83,542,1027.8,0,4,24100,0,
2017-04-21 4:00:00 pm,0.5,-1.9,-5.8,0,0,29.2,39.4,83.6,572,1027.8,0,3,24100,0,
2017-04-21 5:00:00 pm,0.4,-2,-5.7,0,0,29.6,40.6,83.9,525,1027.8,0,3,24100,0,
2017-04-21 6:00:00 pm,0.4,-1.9,-5.6,0,0,29.1,41.8,85,432,1027.8,0,2,24100,0,
2017-04-21 7:00:00 pm,0.3,-1.5,-5.5,0,0,28.2,41.8,87.5,322,1027.9,0,2,24100,0,
2017-04-21 8:00:00 pm,0.3,-1.1,-5.4,0,0,27.2,41.8,90.5,217,1027.9,0,1,24100,0,
2017-04-21 9:00:00 pm,0.2,-0.8,-5.4,0,0,26.8,41.8,93,139,1028,0,0,24100,0,
2017-04-21 10:00:00 pm,0,-0.9,-5.3,0,0,27.3,41.9,94.1,102,1028.3,0,0,24100,0,
2017-04-21 11:00:00 pm,-0.3,-1.1,-5.2,0,0,28.3,42,94.1,90,1028.6,0,0,24100,0,
2017-04-22 12:00:00 am,-0.6,-1.4,-5.2,0,0,29,42.1,94,80,1028.9,0,0,24100,0,
2017-04-22 1:00:00 am,-0.8,-1.6,-5.1,0,0,28.9,41.8,94.2,56,1028.7,0,0,24100,0,
2017-04-22 2:00:00 am,-1,-1.7,-5.1,0,0,28.2,41.4,94.7,24,1028.6,0,0,24100,0,
2017-04-22 3:00:00 am,-1.2,-1.9,-5,0,0,27.6,41,95,0,1028.4,0,0,24100,0,
2017-04-22 4:00:00 am,-1.3,-2,-5,0,0,27.2,40.6,95,0,1028.3,0,0,24100,0,
2017-04-22 5:00:00 am,-1.5,-2.2,-4.9,0,0,26.9,40.1,94.6,0,1028.1,0,0,24100,0,
2017-04-22 6:00:00 am,-1.6,-2.4,-4.9,0,0,26.5,39.6,94,0,1028,0,0,24100,0,
2017-04-22 7:00:00 am,-1.6,-2.5,-4.9,0,0,25.7,39.1,93.3,4,1027.8,0,0,24100,0,
2017-04-22 8:00:00 am,-1.5,-2.6,-4.8,0,0,25,38.6,92.6,5,1027.7,0,0,24100,0,
2017-04-22 9:00:00 am,-1.4,-2.5,-4.8,0,0,24.8,38.2,92,1,1027.5,0,0,24100,0,
2017-04-22 10:00:00 am,-1.1,-2.3,-4.7,0,0,25.5,37.7,91.5,0,1027.4,0,0,24100,0,
2017-04-22 11:00:00 am,-0.8,-2.1,-4.7,0,0,26.6,37.2,91,0,1027.3,0,1,24100,0,
2017-04-22 12:00:00 pm,0.3,-1.3,-4.7,0,0,25.9,36.4,89,56,1027.4,0,2,24100,0,
2017-04-22 1:00:00 pm,0.6,-1.3,-4.6,0,0,26,35,87.6,160,1027.2,0,3,23166,0,
2017-04-22 2:00:00 pm,0.7,-1.3,-4.5,0,0,25.4,33.7,86.5,288,1026.9,0,4,22233,0,
2017-04-22 3:00:00 pm,0.8,-1.3,-4.5,0,0,24.5,32.4,86,399,1026.7,0,4,21300,0,
2017-04-22 4:00:00 pm,0.8,-1.2,-4.4,0,0,23.9,31.6,86.4,459,1026.2,0,5,19099,0,
2017-04-22 5:00:00 pm,0.8,-1,-4.4,0,0,23.7,30.7,87.3,467,1025.6,0,4,16900,0,
2017-04-22 6:00:00 pm,0.8,-1,-4.3,0,0,23.8,29.9,88,431,1025.1,0,3,14700,0,
2017-04-22 7:00:00 pm,0.6,-1.2,-4.3,0,0,24.2,30,88.3,359,1024.4,0,2,15200,0,
2017-04-22 8:00:00 pm,0.3,-1.4,-4.2,0.3,0,24.5,30.1,88.4,273,1023.8,1,1,15700,0,
2017-04-22 9:00:00 pm,-0.1,-1.7,-4.2,0.3,0,24.5,30.2,89,200,1023.1,1,0,16200,0,
2017-04-22 10:00:00 pm,-0.5,-1.9,-4.1,0,0,23.9,30.6,90.3,156,1022.6,0,0,16633,0,
2017-04-22 11:00:00 pm,-0.8,-2,-4.1,0,0,23,31,91.9,132,1022.1,0,0,17066,0,
2017-04-23 12:00:00 am,-1.1,-2.1,-4,0,0,22.6,31.3,93,107,1021.6,0,0,17500,0,
2017-04-23 1:00:00 am,-1.1,-2.1,-4,0.4,0,22.7,31.8,93.1,71,1020.8,1,0,12933,0,
2017-04-23 2:00:00 am,-1.1,-2.1,-4,0.8,0,23.2,32.3,92.6,30,1019.9,1,0,8366,0,
2017-04-23 3:00:00 am,-1,-2.2,-3.9,0.4,0,23.6,32.8,92,0,1019.1,1,0,3800,0,
2017-04-23 4:00:00 am,-1.1,-2.2,-3.9,1,0,23.4,32.3,91.9,0,1018,1,0,5099,0,
2017-04-23 5:00:00 am,-1.2,-2.4,-3.9,0.6,0,22.8,31.8,92,0,1017,1,0,6400,0,
2017-04-23 6:00:00 am,-1.4,-2.5,-3.8,0.3,0,21.9,31.3,92,0,1015.9,1,0,7700,0,
2017-04-23 7:00:00 am,-1.5,-2.7,-3.8,0,0,21.1,30.8,91.8,3,1015,0,0,8200,0,
2017-04-23 8:00:00 am,-1.6,-2.8,-3.8,0,0,20.4,30.4,91.4,3,1014.1,0,0,8700,0,
2017-04-23 9:00:00 am,-1.6,-2.8,-3.8,0,0,19.8,29.9,91,0,1013.2,0,0,9200,0,
2017-04-23 10:00:00 am,-1.5,-2.8,-3.8,0.2,0,19.5,29.6,90.8,0,1012.7,1,0,10366,0,
2017-04-23 11:00:00 am,-1.3,-2.7,-3.7,0.2,0,19.5,29.4,90.3,0,1012.1,1,1,11533,0,
2017-04-23 12:00:00 pm,0,-1.8,-3.7,0,0,22,36.4,88,18,1011.1,0,1,17200,0,
2017-04-23 1:00:00 pm,0.4,-1.9,-3.6,0,0,22.4,35.2,84.7,105,1010.6,0,2,19500,1,
2017-04-23 2:00:00 pm,0.9,-2,-3.6,0,0,22.5,34,81.1,223,1010.1,0,3,21799,6,
2017-04-23 3:00:00 pm,1.4,-2,-3.5,0,0,21.9,32.8,78,339,1009.6,0,3,24100,11,
2017-04-23 4:00:00 pm,1.9,-1.9,-3.5,0,0,20.2,28.9,75.9,426,1009.3,0,3,24100,21,
2017-04-23 5:00:00 pm,2.3,-1.7,-3.5,0,0,17.9,25.1,74.8,481,1009,0,3,24100,31,
2017-04-23 6:00:00 pm,2.7,-1.5,-3.4,0,0,15.3,21.2,74,503,1008.7,0,2,24100,40,
2017-04-23 7:00:00 pm,2.9,-1.3,-3.4,0,0,12.6,16.8,73.5,496,1008.4,0,2,24100,32,
2017-04-23 8:00:00 pm,2.9,-1.3,-3.3,0,0,9.5,12.4,73.9,465,1008.2,0,1,24100,23,
2017-04-23 9:00:00 pm,2.5,-1.3,-3.3,0,0,5.9,7.9,76,420,1007.9,0,0,24100,15,
2017-04-23 10:00:00 pm,1.8,-1.3,-3.3,0,0,3.5,9,80.3,366,1008.1,0,0,19833,9,
2017-04-23 11:00:00 pm,0.8,-1.3,-3.3,0,0,6.8,10.1,85.5,303,1008.3,0,0,15566,3,
2017-04-24 12:00:00 am,0,-1.4,-3.2,0,0,10.2,11.2,90,228,1008.5,0,0,11300,0,
2017-04-24 1:00:00 am,-0.5,-1.6,-3.2,0,0,11.4,11.5,92.6,140,1008.5,0,0,11166,0,
2017-04-24 2:00:00 am,-0.8,-1.7,-3.2,0,0,11.1,11.9,93.6,57,1008.5,0,0,11033,0,
2017-04-24 3:00:00 am,-1,-1.9,-3.2,0,0,10.7,12.2,94,0,1008.5,0,0,10900,0,
2017-04-24 4:00:00 am,-1.3,-2,-3.2,0,0,11.1,11.5,94.4,0,1008,0,0,10800,0,
2017-04-24 5:00:00 am,-1.5,-2.2,-3.2,0,0,12,12,95.1,0,1007.5,0,0,10700,0,
2017-04-24 6:00:00 am,-1.8,-2.3,-3.2,0,0,12.7,12.7,96,0,1007,0,0,10600,0,
2017-04-24 7:00:00 am,-1.9,-2.3,-3.2,0,0,13,13,97.1,6,1006.8,0,0,7066,0,
2017-04-24 8:00:00 am,-1.9,-2.2,-3.2,0,0,13.5,13.5,97.7,5,1006.6,0,0,3533,0,
2017-04-24 9:00:00 am,-1.6,-2,-3.2,0,0,14.9,14.9,97,2,1006.4,0,0,0,2,
2017-04-24 10:00:00 am,-1,-1.8,-3.2,0,0,17.7,19,94.4,2,1006,0,0,3633,4,
2017-04-24 11:00:00 am,-0.2,-1.5,-3.1,0,0,21.4,25.7,90.7,26,1005.5,0,1,7266,2,
2017-04-24 12:00:00 pm,-0.5,-1.5,-3.8,0,0,23.2,38.2,93,64,1006,0,2,1100,0,
2017-04-24 1:00:00 pm,1.3,-0.2,-3.8,0,0,26.6,39.4,89.5,176,1005.1,0,2,8766,0,
2017-04-24 2:00:00 pm,2.7,0.5,-3.7,0.2,0,29.1,40.6,85.7,315,1004.3,1,2,16433,4,
2017-04-24 3:00:00 pm,3.7,1.1,-3.7,0.3,0,31.1,41.8,83,436,1003.4,1,2,24100,9,
2017-04-24 4:00:00 pm,4.5,1.8,-3.7,0.2,0,32.5,40.4,82.3,505,1003.1,1,2,24100,12,
2017-04-24 5:00:00 pm,4.8,1.9,-3.6,0,0,32.2,39.1,81.6,529,1002.8,0,2,24100,15,
2017-04-24 6:00:00 pm,4.5,1,-3.6,0,0,29.6,37.8,78,521,1002.5,0,2,24100,18,
2017-04-24 7:00:00 pm,3.4,-1.5,-3.5,0,0,26.5,39.4,70,494,1004,0,2,24100,29,
2017-04-24 8:00:00 pm,1.8,-5,-3.5,0,0,26.9,40.9,60.3,456,1005.6,0,1,24100,36,
2017-04-24 9:00:00 pm,0.1,-8.3,-3.5,0,0,28.9,42.5,53,412,1007.1,0,0,24100,39,
2017-04-24 10:00:00 pm,-1.4,-10.3,-3.5,0,0,27.4,40.2,50.7,365,1008.4,0,0,24100,40,
2017-04-24 11:00:00 pm,-2.7,-11.3,-3.5,0,0,22.8,37.9,51.8,310,1009.6,0,0,24100,36,
2017-04-25 12:00:00 am,-3.9,-12,-3.6,0,0,18.5,35.6,53,240,1010.9,0,0,24100,0,
2017-04-25 1:00:00 am,-4.8,-13.1,-3.7,0,0,17,36.5,52.2,151,1011.6,0,0,24100,0,
2017-04-25 2:00:00 am,-5.6,-14.2,-3.7,0,0,17.5,37.3,50.3,63,1012.4,0,0,24100,0,
2017-04-25 3:00:00 am,-6.1,-15.1,-3.8,0,0,18,38.2,49,0,1013.1,0,0,24100,0,
2017-04-25 4:00:00 am,-6.5,-15.3,-3.9,0,0,17.7,35.8,49.4,0,1013.4,0,0,24100,0,
2017-04-25 5:00:00 am,-6.6,-15.1,-4,0,0,17.3,33.4,50.8,0,1013.7,0,0,24100,0,
2017-04-25 6:00:00 am,-6.6,-14.8,-4,0,0,17.5,31,52,0,1014,0,0,24100,0,
2017-04-25 7:00:00 am,-6.4,-14.5,-4.1,0,0,18.4,34,52.3,7,1014.3,0,0,24100,0,
2017-04-25 8:00:00 am,-6.1,-14.4,-4.2,0,0,19.8,37,51.7,7,1014.6,0,0,24100,0,
2017-04-25 9:00:00 am,-5.7,-14.2,-4.2,0,0,22,40,51,1,1014.9,0,0,24100,6,
2017-04-25 10:00:00 am,-5.4,-14.1,-4.3,0,0,25.5,41,50.5,0,1015.4,0,0,24100,26,
2017-04-25 11:00:00 am,-5.1,-13.8,-4.3,0,0,29.8,42.1,50.1,32,1015.8,0,1,24100,39,
2017-04-25 12:00:00 pm,-4.8,-14.9,-4.3,0,0,31.1,39.2,45,138,1018.5,0,2,24100,45,
2017-04-25 1:00:00 pm,-4.1,-14.2,-4.3,0,0,32.6,38.6,45.4,321,1019,0,3,24100,50,
2017-04-25 2:00:00 pm,-3.5,-13.4,-4.3,0,0,31.7,38,46,539,1019.5,0,4,24100,55,
2017-04-25 3:00:00 pm,-2.8,-12.8,-4.3,0,0,30.2,37.4,46,719,1020,0,4,24100,60,
2017-04-25 4:00:00 pm,-1.9,-12.2,-4.2,0,0,29,37.2,44.9,809,1020.3,0,4,24100,60,
2017-04-25 5:00:00 pm,-0.9,-11.6,-4.2,0,0,28,37,43.8,818,1020.5,0,4,24100,60,
2017-04-25 6:00:00 pm,0,-10.7,-4.1,0,0,26.5,36.7,44,772,1020.8,0,3,24100,60,
2017-04-25 7:00:00 pm,0.7,-9.5,-4.1,0,0,24.2,35,46.3,696,1021.3,0,2,24100,60,
2017-04-25 8:00:00 pm,1,-8.4,-4,0,0,21.2,33.4,49.3,605,1021.8,0,1,24100,60,
2017-04-25 9:00:00 pm,0.8,-8.1,-4,0,0,18.4,31.7,51,520,1022.3,0,0,24100,60,
2017-04-25 10:00:00 pm,0,-9.1,-4,0,0,15.9,28.2,50,449,1023,0,0,24100,60,
2017-04-25 11:00:00 pm,-1,-10.6,-4,0,0,13.9,24.7,47.9,381,1023.8,0,0,24100,55,
2017-04-26 12:00:00 am,-2,-11.7,-4.1,0,0,12.1,21.2,47,298,1024.5,0,0,24100,0,
2017-04-26 1:00:00 am,-2.5,-11.8,-4.2,0,0,10.6,19.3,48.7,189,1025,0,0,24100,0,
2017-04-26 2:00:00 am,-2.7,-11.1,-4.2,0,0,9.1,17.4,52,79,1025.5,0,0,24100,0,
2017-04-26 3:00:00 am,-2.8,-10.5,-4.3,0,0,7.7,15.5,55,0,1026,0,0,24100,0,
2017-04-26 4:00:00 am,-2.9,-10.3,-4.4,0,0,6.6,13.8,56.3,0,1026.3,0,0,24100,0,
2017-04-26 5:00:00 am,-3,-10.3,-4.5,0,0,6.7,12.1,56.9,0,1026.7,0,0,24100,0,
2017-04-26 6:00:00 am,-3.2,-10.2,-4.6,0,0,8,10.4,58,0,1027,0,0,24100,0,
2017-04-26 7:00:00 am,-3.3,-9.8,-4.6,0,0,9,10.8,60.7,10,1026.8,0,0,24100,0,
2017-04-26 8:00:00 am,-3.2,-9,-4.7,0,0,9.8,11.2,64.1,9,1026.7,0,0,24100,8,
2017-04-26 9:00:00 am,-2.8,-8.1,-4.7,0,0,11,11.5,67,3,1026.5,0,0,24100,0,
2017-04-26 10:00:00 am,-1.9,-6.9,-4.7,0,0,13.6,16.4,68.4,0,1025.4,0,0,24100,0,
2017-04-26 11:00:00 am,-0.7,-5.8,-4.6,0,0,17,21.4,68,15,1024.4,0,1,24100,20,
2017-04-26 12:00:00 pm,-0.2,-4.8,-4.6,0.3,0,15.5,22,71,54,1024,1,1,24100,19,
2017-04-26 1:00:00 pm,1.2,-4.5,-4.5,0.2,0,19.2,31.7,65.8,213,1022.6,1,2,24100,13,
2017-04-26 2:00:00 pm,2.6,-4.5,-4.5,0,0,25.6,41.4,59.7,404,1021.1,0,2,24100,5,
2017-04-26 3:00:00 pm,3.5,-4.2,-4.4,0,0,31.4,51.1,57,542,1019.7,0,3,24100,0,
2017-04-26 4:00:00 pm,3.7,-3.2,-4.3,0,0,32.5,50.5,60.7,570,1018.7,0,2,24100,0,
2017-04-26 5:00:00 pm,3.5,-1.8,-4.3,0,0,30.4,49.9,68.6,515,1017.7,0,2,24100,0,
2017-04-26 6:00:00 pm,3.2,-0.4,-4.2,0,0,27.8,49.3,77,429,1016.7,0,2,24100,0,
2017-04-26 7:00:00 pm,3.3,0.8,-4.2,0,0,26.7,50.5,83.3,351,1016.5,0,1,24100,0,
2017-04-26 8:00:00 pm,3.6,1.8,-4.1,0,0,26.6,51.7,87.9,288,1016.2,0,0,24100,0,
2017-04-26 9:00:00 pm,3.8,2.7,-4.1,0,0,25.7,52.9,92,240,1016,1,0,24100,0,
2017-04-26 10:00:00 pm,3.8,3.2,-4,0.8,0,22,43.2,96.2,201,1016.6,1,0,19833,0,
2017-04-26 11:00:00 pm,3.2,3.1,-4,0.6,0,16,33.5,98.9,166,1017.2,1,0,15566,0,
2017-04-27 12:00:00 am,2,1.7,-3.9,0.8,0,11.5,23.8,98,127,1017.8,1,0,11300,0,
2017-04-27 1:00:00 am,-0.1,-1.2,-3.9,0.8,0,17.6,32.3,92.3,79,1019.3,1,0,14633,0,
2017-04-27 2:00:00 am,-2.5,-4.8,-3.9,0.6,0,28.5,40.8,84.1,33,1020.7,1,0,17966,0,
2017-04-27 3:00:00 am,-4.8,-8.2,-3.8,1,0,36.4,49.3,77,0,1022.2,1,0,21300,0,
2017-04-27 4:00:00 am,-6.6,-10.6,-3.9,0.5,0,37.9,48.7,73.4,0,1023.4,1,0,22233,0,
2017-04-27 5:00:00 am,-7.9,-11.9,-3.9,0,0,35,48.1,72.4,0,1024.7,0,0,23166,0,
2017-04-27 6:00:00 am,-8.6,-12.8,-4,0,0,30.9,47.5,72,0,1025.9,0,0,24100,0,
2017-04-27 7:00:00 am,-9.1,-13.3,-4.1,0,0,27.6,45,70.9,4,1026.6,0,0,24100,0,
2017-04-27 8:00:00 am,-9.1,-13.8,-4.2,0,0,25.6,42.5,68.8,4,1027.4,0,0,24100,29,
2017-04-27 9:00:00 am,-8.9,-14,-4.3,0,0,24.8,40,66,4,1028.1,0,0,24100,54,
2017-04-27 10:00:00 am,-8.3,-14.2,-4.3,0,0,25,35.8,62.7,9,1028.8,0,0,24100,56,
2017-04-27 11:00:00 am,-7.6,-14.2,-4.3,0,0,25.2,31.6,59,47,1029.6,0,1,24100,58,
2017-04-27 12:00:00 pm,-8.1,-13.7,-4.2,0,0,25.2,33.5,64,156,1030.4,0,4,24100,60,
2017-04-27 1:00:00 pm,-7,-13.2,-4.2,0,0,23.8,27.7,61.1,344,1030.6,0,4,24100,56,
2017-04-27 2:00:00 pm,-6.1,-12.9,-4.2,0,0,20.6,22,58.6,563,1030.9,0,5,24100,53,
2017-04-27 3:00:00 pm,-5.4,-12.5,-4.1,0,0,16.8,16.8,57,740,1031.1,0,6,24100,50,
2017-04-27 4:00:00 pm,-4.8,-12,-4.1,0,0,13.1,13.1,56.9,819,1031.2,0,5,24100,32,
2017-04-27 5:00:00 pm,-4.3,-11.3,-4,0,0,9.8,9.8,58,800,1031.3,0,5,24100,14,
2017-04-27 6:00:00 pm,-4,-10.6,-4,0,0,6.9,6.9,60,697,1031.4,0,4,24100,0,
2017-04-27 7:00:00 pm,-4,-10,-3.9,0,0,5.1,5.8,62.6,529,1031.3,0,2,24100,0,
2017-04-27 8:00:00 pm,-4.1,-9.6,-3.9,0,0,4.6,5.4,65.7,344,1031.1,0,1,24100,0,
2017-04-27 9:00:00 pm,-4.5,-9.3,-3.9,0,0,5.2,5.2,69,199,1031,0,1,24100,0,
2017-04-27 10:00:00 pm,-4.9,-9.1,-3.9,0,0,6.3,7.4,72.4,132,1031.2,0,0,24100,0,
2017-04-27 11:00:00 pm,-5.3,-8.9,-3.9,0,0,7.6,9.8,75.5,117,1031.3,0,0,24100,0,
2017-04-28 12:00:00 am,-5.6,-8.8,-3.9,0,0,8.7,12.2,78,111,1031.5,0,0,24100,0,
2017-04-28 1:00:00 am,-5.8,-8.7,-3.9,0,0,9.3,12.4,79.7,80,1031.3,0,0,24100,0,
2017-04-28 2:00:00 am,-5.8,-8.6,-4,0,0,9.6,12.5,80.9,36,1031.2,0,0,24100,0,
2017-04-28 3:00:00 am,-5.8,-8.4,-4,0,0,9.8,12.6,82,0,1031,0,0,24100,0,
2017-04-28 4:00:00 am,-5.8,-8.2,-4,0,0,10.4,13,83.2,0,1030.5,0,0,21566,0,
2017-04-28 5:00:00 am,-5.8,-7.9,-4,0,0,11,13.3,84.6,0,1029.9,0,0,19033,0,
2017-04-28 6:00:00 am,-5.8,-7.8,-4.1,0,0,11,13.7,86,0,1029.4,0,0,16500,0,
2017-04-28 7:00:00 am,-5.9,-7.7,-4.1,0,0,10.2,12.2,87.3,9,1029.1,0,0,11966,0,
2017-04-28 8:00:00 am,-6,-7.6,-4.1,0,0,9,10.8,88.4,12,1028.9,0,0,7433,0,
2017-04-28 9:00:00 am,-6.1,-7.6,-4.1,0.3,0,8.2,9.4,89,1,1028.6,1,0,2900,0,
2017-04-28 10:00:00 am,-6,-7.5,-4.1,0.8,0,8.7,11.3,89.1,0,1028.4,1,1,5299,0,
2017-04-28 11:00:00 am,-5.9,-7.5,-4.1,0.4,0,10.2,13.2,88.2,0,1028.3,1,2,7700,0,
2017-04-28 12:00:00 pm,-4,-5.2,-4,0.4,0,14.6,21.2,91,23,1027.4,1,2,9100,0,
2017-04-28 1:00:00 pm,-3.5,-5.4,-3.9,0.9,0,17.4,22.2,86.8,132,1026.8,1,4,14100,6,
2017-04-28 2:00:00 pm,-2.9,-5.7,-3.9,0.4,0,19.3,23.2,81.4,275,1026.2,1,6,19099,16,
2017-04-28 3:00:00 pm,-2.6,-5.8,-3.8,0,0,20.6,24.1,78,400,1025.6,0,6,24100,27,
2017-04-28 4:00:00 pm,-2.4,-5.6,-3.8,0,0,21.5,26.3,78.8,469,1024.7,0,6,24000,16,
2017-04-28 5:00:00 pm,-2.5,-5,-3.7,0,0,22.3,28.4,82.5,478,1023.9,0,5,23900,6,
2017-04-28 6:00:00 pm,-2.5,-4.4,-3.7,0,0,22.9,30.6,87,432,1023,0,4,23800,0,
2017-04-28 7:00:00 pm,-2.4,-3.7,-3.7,0,0,23.5,33.5,90.6,338,1021.6,0,2,21933,0,
2017-04-28 8:00:00 pm,-2.1,-3.1,-3.6,0,0,24.2,36.4,92.9,229,1020.2,0,1,20066,0,
2017-04-28 9:00:00 pm,-1.8,-2.6,-3.6,0,0,25.1,39.2,94,140,1018.8,0,1,18200,0,
2017-04-28 10:00:00 pm,-1.4,-2.2,-3.5,0.5,0,26.3,42.6,94.2,96,1017.1,1,0,12566,0,
2017-04-28 11:00:00 pm,-1,-1.8,-3.5,0.4,0,27.7,46,93.9,83,1015.5,1,0,6933,0,
2017-04-29 12:00:00 am,-0.6,-1.4,-3.5,0.7,0,29.2,49.3,94,75,1013.8,1,0,1300,0,
2017-04-29 1:00:00 am,-0.2,-0.9,-3.4,0.9,0,30.6,49.9,94.8,53,1011.8,1,0,3933,0,
2017-04-29 2:00:00 am,0.1,-0.4,-3.4,0.9,0,31.3,50.5,96.1,23,1009.8,1,0,6566,0,
2017-04-29 3:00:00 am,0.3,-0.1,-3.3,0.8,0,30.6,51.1,97,0,1007.8,1,0,9200,0,
2017-04-29 4:00:00 am,0.2,-0.2,-3.3,0.6,0,28,41.6,97.2,0,1005.9,1,0,6200,0,
2017-04-29 5:00:00 am,0,-0.4,-3.3,0.8,0,24.2,32.2,97,0,1004.1,1,0,3199,0,
2017-04-29 6:00:00 am,0,-0.4,-3.2,0,0,20.2,22.7,97,0,1002.2,0,0,200,0,
2017-04-29 7:00:00 am,0.2,-0.2,-3.2,0,0,15.9,18.7,97.5,4,1001.1,0,0,833,0,
2017-04-29 8:00:00 am,0.5,0.3,-3.2,0,0,12,14.8,98.3,5,999.9,1,0,1466,0,
2017-04-29 9:00:00 am,0.9,0.8,-3.1,0,0,9,10.8,99,1,998.8,1,0,2100,0,
2017-04-29 10:00:00 am,1.3,1.2,-3.1,0.2,0,8.1,12.5,99.3,0,998,1,0,2333,0,
2017-04-29 11:00:00 am,1.6,1.5,-3.1,0.5,0,9.2,14.2,99.3,0,997.3,1,1,2566,0,
2017-04-29 12:00:00 pm,2.1,1.3,-2.9,0,0,9.7,16.6,95,34,999.2,0,1,24100,0,
2017-04-29 1:00:00 pm,3.6,2.5,-2.9,0,0,9.3,14.9,92.4,181,998.3,0,1,24100,12,
2017-04-29 2:00:00 pm,5.5,3.9,-2.8,0,0,8.8,13.2,89.3,369,997.4,0,2,24100,28,
2017-04-29 3:00:00 pm,7,5,-2.8,0,0,8.4,11.5,87,530,996.5,0,2,24100,13,
2017-04-29 4:00:00 pm,7.9,5.8,-2.8,0,0,8.3,13.3,86.5,610,996,0,3,24100,29,
2017-04-29 5:00:00 pm,8.2,6.3,-2.8,0,0,8.1,15.1,87.4,613,995.4,0,3,24100,20,
2017-04-29 6:00:00 pm,8,6.3,-2.7,0,0,7.5,16.9,89,558,994.9,1,2,24100,8,
2017-04-29 7:00:00 pm,7.5,6.1,-2.7,0,0,8,18.6,90.7,462,995.1,1,2,24100,15,
2017-04-29 8:00:00 pm,6.8,5.7,-2.7,0,0,10.7,20.3,92.4,354,995.3,1,1,24100,23,
2017-04-29 9:00:00 pm,6.3,5.4,-2.6,0,0,12.2,22,94,265,995.5,1,0,24100,24,
2017-04-29 10:00:00 pm,6,5.3,-2.6,0,0,9.9,15.1,95.6,215,995.6,1,0,19699,26,
2017-04-29 11:00:00 pm,5.8,5.3,-2.6,0,0,5.2,8.3,97,188,995.6,1,0,15300,0,
2017-04-30 12:00:00 am,5.5,5.2,-2.5,0,0,0.4,1.4,98,158,995.7,1,0,10900,0,
2017-04-30 1:00:00 am,4.9,4.7,-2.5,0,0,2.5,2.5,98.6,106,995.9,1,0,7566,0,
2017-04-30 2:00:00 am,4.2,4.1,-2.5,0.3,0,3.1,3.6,98.9,46,996,1,0,4233,0,
2017-04-30 3:00:00 am,3.6,3.5,-2.5,0.9,0,3.4,4.7,99,0,996.2,1,0,900,0,
2017-04-30 4:00:00 am,3.2,3.1,-2.4,0.6,0,7.9,19,98.9,0,997,1,0,8633,0,
2017-04-30 5:00:00 am,2.7,2.4,-2.4,0.9,0,15.2,33.2,97.6,0,997.7,1,0,16366,0,
2017-04-30 6:00:00 am,1.7,0.9,-2.4,1,0,23.2,47.5,94,0,998.5,1,0,24100,0,
2017-04-30 7:00:00 am,0.1,-1.7,-2.4,0.8,0,30.6,51.1,87.6,8,999.9,1,0,24100,0,
2017-04-30 8:00:00 am,-1.9,-4.8,-2.4,0.4,0,36.6,54.7,80.1,9,1001.4,1,0,24100,0,
2017-04-30 9:00:00 am,-3.4,-7.4,-2.4,0.3,0,40.7,58.3,74,2,1002.8,1,0,24100,0,
2017-04-30 10:00:00 am,-4.1,-8.6,-2.4,0,0,42.6,56.6,70.9,0,1003.8,0,0,24100,0,
2017-04-30 11:00:00 am,-4.1,-8.8,-2.5,0,0,42.9,55,69.8,15,1004.9,0,1,24100,9,
2017-04-30 12:00:00 pm,-4.5,-7.9,-2.5,0,0,41.4,56.9,77,61,1005.7,0,2,21900,15,
2017-04-30 1:00:00 pm,-4.2,-8,-2.5,0,0,41.4,55.3,74.2,231,1006.4,0,3,22633,24,
2017-04-30 2:00:00 pm,-3.5,-8.2,-2.5,0,0,41.4,53.8,69.8,445,1007,0,4,23366,33,
2017-04-30 3:00:00 pm,-2.7,-8.4,-2.5,0,0,41.1,52.2,65,631,1007.7,0,4,24100,42,
2017-04-30 4:00:00 pm,-2.1,-8.6,-2.5,0,0.1,40.7,51.8,60.8,734,1008.1,0,5,24100,47,
2017-04-30 5:00:00 pm,-1.6,-8.8,-2.4,0,0.1,40.2,51.5,57.6,763,1008.5,0,4,24100,51,
2017-04-30 6:00:00 pm,-1.3,-8.9,-2.4,0,0.1,39.4,51.1,56,740,1008.9,0,3,24100,56,
2017-04-30 7:00:00 pm,-1.2,-8.8,-2.4,0,0,38.5,51.2,56.1,685,1009.4,0,2,24100,52,
2017-04-30 8:00:00 pm,-1.4,-8.7,-2.4,0,0,37.2,51.4,57.6,615,1009.8,0,1,24100,49,
2017-04-30 9:00:00 pm,-2,-8.7,-2.4,0,0,35.3,51.5,60,542,1010.3,0,1,24100,46,
2017-04-30 10:00:00 pm,-2.9,-8.9,-2.4,0,0,32.8,51.7,62.8,474,1011,0,0,24100,42,
2017-04-30 11:00:00 pm,-3.9,-9.3,-2.5,0,0,30.4,52,65.7,402,1011.6,0,0,24100,2,
2017-05-01 12:00:00 am,-4.7,-9.7,-2.5,0,0,29,52.2,68,313,1012.3,0,0,24100,0,
2017-05-01 1:00:00 am,-5.1,-9.8,-2.6,0,0,29,52.7,69.5,198,1012.8,0,0,24100,0,
2017-05-01 2:00:00 am,-5.2,-9.8,-2.7,0,0,29.9,53.2,70.4,82,1013.3,0,0,24100,0,
2017-05-01 3:00:00 am,-5.3,-9.8,-2.8,0,0,31,53.6,71,0,1013.8,0,0,24100,0,
2017-05-01 4:00:00 am,-5.5,-9.9,-2.8,0,0,31.4,52.9,71.5,0,1013.8,0,0,24100,0,
2017-05-01 5:00:00 am,-5.9,-10.1,-2.9,0,0,31.4,52.2,71.9,0,1013.9,0,0,24100,0,
2017-05-01 6:00:00 am,-6.3,-10.5,-2.9,0,0,31.2,51.5,72,0,1013.9,0,0,24100,0,
2017-05-01 7:00:00 am,-6.7,-11,-3,0,0,31,50.9,71.7,9,1014.2,0,0,24100,0,
2017-05-01 8:00:00 am,-7.1,-11.4,-3.1,0,0,31.2,50.3,71.1,9,1014.6,0,0,24100,16,
2017-05-01 9:00:00 am,-7.1,-11.6,-3.1,0,0,32.1,49.7,70,6,1014.9,0,0,24100,23,
2017-05-01 10:00:00 am,-6.8,-11.6,-3.1,0,0,33.6,49.3,68.6,8,1015.2,0,0,24100,28,
2017-05-01 11:00:00 am,-6.2,-11.3,-3.2,0,0,35.3,49,66.9,45,1015.6,0,1,24100,33,
2017-05-01 12:00:00 pm,-6.1,-11.4,-3.4,0,0,35.7,46.8,66,163,1016.9,0,2,24100,57,
2017-05-01 1:00:00 pm,-5,-10.8,-3.3,0,0,36.5,45.1,63.8,358,1017.1,0,3,24100,55,
2017-05-01 2:00:00 pm,-4,-10.3,-3.3,0,0,35.9,43.4,61.3,584,1017.4,0,4,24100,52,
2017-05-01 3:00:00 pm,-3.1,-10,-3.3,0,0,34.8,41.8,59,769,1017.6,0,5,24100,50,
2017-05-01 4:00:00 pm,-2.4,-9.7,-3.3,0,0,33.9,40.3,57.3,859,1017.7,0,5,24100,53,
2017-05-01 5:00:00 pm,-1.9,-9.3,-3.2,0,0,33,38.9,56.5,863,1017.7,0,4,24100,56,
2017-05-01 6:00:00 pm,-1.4,-8.8,-3.2,0,0,31.9,37.4,57,808,1017.8,0,4,24100,60,
2017-05-01 7:00:00 pm,-1,-8,-3.2,0,0,30.2,35.5,58.9,718,1017.9,0,2,24100,60,
2017-05-01 8:00:00 pm,-0.8,-7.2,-3.1,0,0,27.7,33.6,61.7,615,1018.1,0,1,24100,60,
2017-05-01 9:00:00 pm,-1.1,-6.8,-3.1,0,0,24,31.7,65,520,1018.2,0,1,24100,60,
2017-05-01 10:00:00 pm,-2,-7,-3.1,0,0,19.2,24.8,68.3,445,1018.5,0,0,24100,59,
2017-05-01 11:00:00 pm,-3.2,-7.6,-3.2,0,0,14.3,18,71.5,377,1018.8,0,0,24100,5,
2017-05-02 12:00:00 am,-4.3,-8,-3.2,0,0,10.5,11.2,75,296,1019.1,1,0,24100,0,
2017-05-02 1:00:00 am,-5,-8.1,-3.3,0,0,7.9,8.5,78.7,189,1019.6,1,0,24100,0,
2017-05-02 2:00:00 am,-5.5,-8,-3.3,0,0,6.3,6.3,82.4,79,1020.2,1,0,24100,0,
2017-05-02 3:00:00 am,-5.8,-7.8,-3.4,0,0,5.4,5.4,86,0,1020.7,1,0,24100,0,
2017-05-02 4:00:00 am,-6.2,-7.7,-3.5,0,0,4.2,4.2,89.1,0,1020.4,1,0,24100,0,
2017-05-02 5:00:00 am,-6.5,-7.7,-3.6,0,0,2.9,3.2,91.5,0,1020.1,1,0,24100,0,
2017-05-02 6:00:00 am,-6.8,-7.7,-3.7,0,0,2.6,3.2,93,0,1019.8,1,0,24100,0,
2017-05-02 7:00:00 am,-6.9,-7.8,-3.8,0,0,3.9,3.9,93.3,10,1020.1,1,0,24100,0,
2017-05-02 8:00:00 am,-6.7,-7.7,-3.8,0,0,5.8,5.8,92.1,11,1020.3,0,0,24100,23,
2017-05-02 9:00:00 am,-5.9,-7.4,-3.9,0,0,7.3,7.3,89,4,1020.6,0,0,24100,26,
2017-05-02 10:00:00 am,-4.4,-6.7,-3.9,0,0,8.2,8.2,84,0,1020.7,0,0,24100,25,
2017-05-02 11:00:00 am,-2.7,-5.9,-3.8,0,0,8.5,8.5,78.4,27,1020.7,0,1,24100,25,
2017-05-02 12:00:00 pm,-4.2,-6.3,-3.9,0,0,5.6,7.9,85,111,1020.3,0,3,10900,33,
2017-05-02 1:00:00 pm,-2.4,-5.4,-3.8,0,0,8.8,10.6,79.8,297,1020.2,0,4,15300,40,
2017-05-02 2:00:00 pm,-1.2,-5,-3.8,0,0,12.1,13.2,75.3,520,1020.1,0,6,19699,35,
2017-05-02 3:00:00 pm,-0.6,-4.8,-3.7,0,0,15.3,15.8,73,700,1020,0,7,24100,30,
2017-05-02 4:00:00 pm,-0.4,-4.4,-3.7,0,0,18.1,18.8,74,776,1019.5,0,5,24100,18,
2017-05-02 5:00:00 pm,-0.3,-3.8,-3.6,0,0,20.5,21.8,76.9,756,1018.9,0,5,24100,7,
2017-05-02 6:00:00 pm,-0.2,-3.2,-3.5,0,0,22.5,24.8,80,668,1018.4,0,4,24100,0,
2017-05-02 7:00:00 pm,0.1,-2.6,-3.5,0,0,24.1,26.6,81.8,537,1017.9,0,2,24100,6,
2017-05-02 8:00:00 pm,0.3,-2.3,-3.5,0,0,25,28.4,82.9,398,1017.3,0,1,24100,16,
2017-05-02 9:00:00 pm,-0.2,-2.6,-3.4,0,0,24.8,30.2,84,290,1016.8,0,1,24100,27,
2017-05-02 10:00:00 pm,-1.6,-3.7,-3.4,0,0,23.3,29.4,85.8,235,1016.5,0,0,24100,35,
2017-05-02 11:00:00 pm,-3.4,-5.1,-3.4,0,0,21.2,28.6,88,212,1016.1,0,0,24100,5,